OBJECT_NAME,OBJECT_ID,EPOCH,MEAN_MOTION,ECCENTRICITY,INCLINATION,RA_OF_ASC_NODE,ARG_OF_PERICENTER,MEAN_ANOMALY,EPHEMERIS_TYPE,CLASSIFICATION_TYPE,NORAD_CAT_ID,ELEMENT_SET_NO,REV_AT_EPOCH,BSTAR,MEAN_MOTION_DOT,MEAN_MOTION_DDOT
HAWK-5A,2022-057AB,2026-06-25T04:05:02.154048,15.51651830,.00049663,97.6610,335.5349,53.0451,307.1254,0,U,52757,999,22758,.3764857E-3,.22308E-3,0
HAWK-6B,2023-011A,2026-06-24T18:57:16.286976,15.22993674,.00013294,40.4997,307.7275,74.2816,285.8140,0,U,55324,999,18900,.19154849E-3,.4405E-4,0
HAWK-6C,2023-011C,2026-06-24T18:56:20.966784,15.22987730,.00020934,40.4982,304.5691,55.0443,305.0562,0,U,55326,999,18901,.18259527E-3,.4189E-4,0
HAWK-6A,2023-011D,2026-06-24T18:56:24.620640,15.22991690,.00017468,40.4995,306.1943,47.9524,312.1434,0,U,55327,999,18901,.19371649E-3,.4457E-4,0
HAWK-7A,2023-054P,2026-06-25T05:36:58.171968,15.27436587,.00037004,97.2700,63.3667,39.2565,320.8943,0,U,56191,999,17825,.25067159E-3,.666E-4,0
HAWK-7B,2023-054R,2026-06-25T05:36:51.762816,15.27435055,.00032902,97.2727,61.6336,54.2222,305.9323,0,U,56193,999,17825,.23684091E-3,.6288E-4,0
HAWK-7C,2023-054Y,2026-06-25T05:36:41.673024,15.27435380,.00031355,97.2703,62.3996,44.8472,315.3020,0,U,56200,999,17825,.23217337E-3,.6163E-4,0
