[{"id":"52757","name":"HAWK-5A","tle1":"1 52757U 22057AB  26176.17016382  .00022308  00000+0  37649-3 0  9998","tle2":"2 52757  97.6610 335.5349 0004966  53.0451 307.1254 15.51651830227583"},{"id":"55324","name":"HAWK-6B","tle1":"1 55324U 23011A   26175.78977184  .00004405  00000+0  19155-3 0  9994","tle2":"2 55324  40.4997 307.7275 0001329  74.2816 285.8140 15.22993674189002"},{"id":"55326","name":"HAWK-6C","tle1":"1 55326U 23011C   26175.78913156  .00004189  00000+0  18260-3 0  9990","tle2":"2 55326  40.4982 304.5691 0002093  55.0443 305.0562 15.22987730189017"},{"id":"55327","name":"HAWK-6A","tle1":"1 55327U 23011D   26175.78917385  .00004457  00000+0  19372-3 0  9992","tle2":"2 55327  40.4995 306.1943 0001746  47.9524 312.1434 15.22991690189011"},{"id":"56191","name":"HAWK-7A","tle1":"1 56191U 23054P   26176.23400662  .00006660  00000+0  25067-3 0  9991","tle2":"2 56191  97.2700  63.3667 0003700  39.2565 320.8943 15.27436587178250"},{"id":"56193","name":"HAWK-7B","tle1":"1 56193U 23054R   26176.23393244  .00006288  00000+0  23684-3 0  9999","tle2":"2 56193  97.2727  61.6336 0003290  54.2222 305.9323 15.27435055178251"},{"id":"56200","name":"HAWK-7C","tle1":"1 56200U 23054Y   26176.23381566  .00006163  00000+0  23217-3 0  9996","tle2":"2 56200  97.2703  62.3996 0003135  44.8472 315.3020 15.27435380178254"}]